[Satellite]
VERSION=1.1
NAME=CUSAT 2 & FALCON 9 R/B
NICKNAME=CUSAT 2 & FALCON 9 R/B
TLE1=1 39271U 13055G   18020.87348779  .00004054  00000-0  10402-3 0  9993
TLE2=2 39271  80.9695 126.3593 0620960 276.8862  76.2106 14.39894479223920
